[{"OBJECT_NAME":"STARLINK-30514","OBJECT_ID":"2023-156A","EPOCH":"2026-03-09T11:01:45.234048","MEAN_MOTION":15.30179861,"ECCENTRICITY":0.00010563,"INCLINATION":53.1594,"RA_OF_ASC_NODE":79.2374,"ARG_OF_PERICENTER":100.7224,"MEAN_ANOMALY":259.3895,"EPHEMERIS_TYPE":0,"CLASSIFICATION_TYPE":"U","NORAD_CAT_ID":58028,"ELEMENT_SET_NO":999,"REV_AT_EPOCH":13628,"BSTAR":0.00020581517,"MEAN_MOTION_DOT":5.738e-5,"MEAN_MOTION_DDOT":0},{"OBJECT_NAME":"TOMORROW-S1","OBJECT_ID":"2024-149M","EPOCH":"2026-03-09T17:23:34.533600","MEAN_MOTION":15.31198363,"ECCENTRICITY":0.00018188,"INCLINATION":97.3791,"RA_OF_ASC_NODE":149.6044,"ARG_OF_PERICENTER":207.204,"MEAN_ANOMALY":152.9106,"EPHEMERIS_TYPE":0,"CLASSIFICATION_TYPE":"U","NORAD_CAT_ID":60479,"ELEMENT_SET_NO":999,"REV_AT_EPOCH":8686,"BSTAR":0.0002885603,"MEAN_MOTION_DOT":8.62e-5,"MEAN_MOTION_DDOT":0}]
